[{"OBJECT_NAME":"NORSAT 2","OBJECT_ID":"2017-042D","EPOCH":"2026-03-09T22:36:44.019360","MEAN_MOTION":15.19710516,"ECCENTRICITY":0.00104189,"INCLINATION":97.3979,"RA_OF_ASC_NODE":244.1384,"ARG_OF_PERICENTER":44.3971,"MEAN_ANOMALY":315.8097,"EPHEMERIS_TYPE":0,"CLASSIFICATION_TYPE":"U","NORAD_CAT_ID":42828,"ELEMENT_SET_NO":999,"REV_AT_EPOCH":47265,"BSTAR":0.00070065492,"MEAN_MOTION_DOT":0.00014937,"MEAN_MOTION_DDOT":0},{"OBJECT_NAME":"TIANYI B","OBJECT_ID":"2025-103B","EPOCH":"2026-03-09T22:38:55.453632","MEAN_MOTION":15.19368035,"ECCENTRICITY":0.00030763,"INCLINATION":97.3871,"RA_OF_ASC_NODE":142.9815,"ARG_OF_PERICENTER":142.7793,"MEAN_ANOMALY":217.3656,"EPHEMERIS_TYPE":0,"CLASSIFICATION_TYPE":"U","NORAD_CAT_ID":64049,"ELEMENT_SET_NO":999,"REV_AT_EPOCH":4499,"BSTAR":0.00023230901,"MEAN_MOTION_DOT":4.846e-5,"MEAN_MOTION_DDOT":0}]
